KUIPER-00133            
1 65764U 25217C   26024.60908996 -.00003683  00000+0 -45458-3 0  9996
2 65764  51.9014 248.0304 0002297 198.1955 161.8925 14.79911781 18211
KUIPER-00139            
1 65765U 25217D   26025.12723959  .00010771  00000+0  82432-3 0  9996
2 65765  51.8841 233.2637 0007955 169.2421 190.8723 15.02334872 18469
KUIPER-00142            
1 65766U 25217E   26025.26963925  .00004026  00000+0  55657-3 0  9996
2 65766  51.8975 227.5982 0000101  26.6851 333.4116 14.79949857 18555
KUIPER-00145            
1 65767U 25217F   26024.99677255  .00000585  00000+0  10579-3 0  9994
2 65767  51.9000 231.3176 0001228  76.0756 284.0343 14.79934246 18478
KUIPER-00147            
1 65768U 25217G   26024.96028197  .00003193  00000+0  44760-3 0  9994
2 65768  51.9027 233.9776 0000989 242.7375 117.3487 14.79941120 18436
KUIPER-00148            
1 65769U 25217H   26025.51282688  .00010692  00000+0  67613-3 0  9998
2 65769  51.8767 224.7687 0009759 197.3514 162.7128 15.09474260 18616
KUIPER-00150            
1 65770U 25217J   26024.61178700  .00004567  00000+0  62665-3 0  9995
2 65770  51.8998 245.5136 0001219  97.6733 262.4368 14.80005344 18246
KUIPER-00151            
1 65771U 25217K   26024.95756191  .00005006  00000+0  68474-3 0  9992
2 65771  51.8995 236.4819 0000907 115.6739 244.4317 14.79963691 18409
